
# Worst residual: 113.82 km
# MJD 59551.000000 (2021 Dec  3  0:00)
A10zoXd = A10zk89 = A10xFqD = A10zDsS
1 89952U 00000ABV 21337.49919926  .00000000  00000-0  00000-0 0 13229
2 89952 014.8094 014.2866 3221785 223.2338 002.2018 01.01241021    04

# Worst residual: 112.51 km
# MJD 59552.000000 (2021 Dec  4  0:00)
A10zoXd = A10zk89 = A10xFqD = A10zDsS
1 89952U 00000ABV 21338.49919926  .00000000  00000-0  00000-0 0 13220
2 89952 014.8313 014.3776 3201759 224.5648 004.2787 01.01245234    01

# Worst residual: 111.40 km
# MJD 59553.000000 (2021 Dec  5  0:00)
A10zoXd = A10zk89 = A10xFqD = A10zDsS
1 89952U 00000ABV 21339.49919926  .00000000  00000-0  00000-0 0 13221
2 89952 014.8435 014.4011 3183272 225.9877 006.3287 01.01257280    09

# Worst residual: 104.15 km
# MJD 59554.000000 (2021 Dec  6  0:00)
A10zoXd = A10zk89 = A10xFqD = A10zDsS
1 89952U 00000ABV 21340.49919926  .00000000  00000-0  00000-0 0 13223
2 89952 014.8688 014.4972 3165270 227.3295 008.3878 01.01254627    03

# Worst residual: 111.68 km
# MJD 59555.000000 (2021 Dec  7  0:00)
A10zoXd = A10zk89 = A10xFqD = A10zDsS
1 89952U 00000ABV 21341.49919926  .00000000  00000-0  00000-0 0 13224
2 89952 014.8874 014.5642 3146353 228.7114 010.4315 01.01265978    02

# Worst residual: 102.43 km
# MJD 59556.000000 (2021 Dec  8  0:00)
A10zoXd = A10zk89 = A10xFqD = A10zDsS
1 89952U 00000ABV 21342.49919926  .00000000  00000-0  00000-0 0 13225
2 89952 014.9046 014.6087 3129876 230.1277 012.4645 01.01261303    02

# Worst residual: 98.93 km
# MJD 59557.000000 (2021 Dec  9  0:00)
A10zoXd = A10zk89 = A10xFqD = A10zDsS
1 89952U 00000ABV 21343.49919926  .00000000  00000-0  00000-0 0 13226
2 89952 014.9206 014.7014 3113115 231.5070 014.4967 01.01264578    02

# Worst residual: 103.99 km
# MJD 59558.000000 (2021 Dec 10  0:00)
A10zoXd = A10zk89 = A10xFqD = A10zDsS
1 89952U 00000ABV 21344.49919926  .00000000  00000-0  00000-0 0 13227
2 89952 014.9407 014.7782 3096704 232.9077 016.5182 01.01276635    02

# Worst residual: 96.92 km
# MJD 59559.000000 (2021 Dec 11  0:00)
A10zoXd = A10zk89 = A10xFqD = A10zDsS
1 89952U 00000ABV 21345.49919926  .00000000  00000-0  00000-0 0 13228
2 89952 014.9536 014.8515 3081625 234.3270 018.5214 01.01272715    00

# Worst residual: 94.01 km
# MJD 59560.000000 (2021 Dec 12  0:00)
A10zoXd = A10zk89 = A10xFqD = A10zDsS
1 89952U 00000ABV 21346.49919926  .00000000  00000-0  00000-0 0 13229
2 89952 014.9735 014.9739 3067579 235.7073 020.5285 01.01280580    08

# Worst residual: 92.50 km
# MJD 59561.000000 (2021 Dec 13  0:00)
A10zoXd = A10zk89 = A10xFqD = A10zDsS
1 89952U 00000ABV 21347.49919926  .00000000  00000-0  00000-0 0 13220
2 89952 014.9882 014.9975 3053618 237.1955 022.5169 01.01282981    07

# Worst residual: 87.64 km
# MJD 59562.000000 (2021 Dec 14  0:00)
A10zoXd = A10zk89 = A10xFqD = A10zDsS
1 89952U 00000ABV 21348.49919926  .00000000  00000-0  00000-0 0 13221
2 89952 015.0084 015.0663 3040682 238.6594 024.4822 01.01280313    05

# Worst residual: 88.07 km
# MJD 59563.000000 (2021 Dec 15  0:00)
A10zoXd = A10zk89 = A10xFqD = A10zDsS
1 89952U 00000ABV 21349.49919926  .00000000  00000-0  00000-0 0 13222
2 89952 015.0222 015.1763 3028869 240.0775 026.4648 01.01285406    08

# Worst residual: 93.69 km
# MJD 59564.000000 (2021 Dec 16  0:00)
A10zoXd = A10zk89 = A10xFqD = A10zDsS
1 89952U 00000ABV 21350.49919926  .00000000  00000-0  00000-0 0 13224
2 89952 015.0330 015.2547 3016974 241.5512 028.4140 01.01286633    00

# Worst residual: 97.98 km
# MJD 59565.000000 (2021 Dec 17  0:00)
A10zoXd = A10zk89 = A10xFqD = A10zDsS
1 89952U 00000ABV 21351.49919926  .00000000  00000-0  00000-0 0 13225
2 89952 015.0490 015.3034 3006548 243.0571 030.3671 01.01286640    06

# Worst residual: 100.73 km
# MJD 59566.000000 (2021 Dec 18  0:00)
A10zoXd = A10zk89 = A10xFqD = A10zDsS
1 89952U 00000ABV 21352.49919926  .00000000  00000-0  00000-0 0 13226
2 89952 015.0556 015.3860 2996613 244.5284 032.3152 01.01280452    04

# Worst residual: 106.79 km
# MJD 59567.000000 (2021 Dec 19  0:00)
A10zoXd = A10zk89 = A10xFqD = A10zDsS
1 89952U 00000ABV 21353.49919926  .00000000  00000-0  00000-0 0 13227
2 89952 015.0630 015.4571 2986345 246.0485 034.2404 01.01282938    00

# Worst residual: 108.91 km
# MJD 59568.000000 (2021 Dec 20  0:00)
A10zoXd = A10zk89 = A10xFqD = A10zDsS
1 89952U 00000ABV 21354.49919926  .00000000  00000-0  00000-0 0 13228
2 89952 015.0719 015.5370 2978363 247.5299 036.1771 01.01279647    07

# Worst residual: 115.87 km
# MJD 59569.000000 (2021 Dec 21  0:00)
A10zoXd = A10zk89 = A10xFqD = A10zDsS
1 89952U 00000ABV 21355.49919926  .00000000  00000-0  00000-0 0 13229
2 89952 015.0854 015.6074 2969885 249.0543 038.0952 01.01278011    03

# Worst residual: 118.99 km
# MJD 59570.000000 (2021 Dec 22  0:00)
A10zoXd = A10zk89 = A10xFqD = A10zDsS
1 89952U 00000ABV 21356.49919926  .00000000  00000-0  00000-0 0 13220
2 89952 015.0926 015.6966 2962990 250.5456 040.0267 01.01276894    02

# Worst residual: 124.10 km
# MJD 59571.000000 (2021 Dec 23  0:00)
A10zoXd = A10zk89 = A10xFqD = A10zDsS
1 89952U 00000ABV 21357.49919926  .00000000  00000-0  00000-0 0 13221
2 89952 015.1023 015.7607 2956253 252.0899 041.9275 01.01271785    00

# Worst residual: 124.04 km
# MJD 59572.000000 (2021 Dec 24  0:00)
A10zoXd = A10zk89 = A10xFqD = A10zDsS
1 89952U 00000ABV 21358.49919926  .00000000  00000-0  00000-0 0 13222
2 89952 015.1128 015.8104 2951254 253.6448 043.8323 01.01262490    00

# Worst residual: 126.73 km
# MJD 59573.000000 (2021 Dec 25  0:00)
A10zoXd = A10zk89 = A10xFqD = A10zDsS
1 89952U 00000ABV 21359.49919926  .00000000  00000-0  00000-0 0 13223
2 89952 015.1174 015.9149 2946377 255.1490 045.7299 01.01258956    00

# Worst residual: 133.79 km
# MJD 59574.000000 (2021 Dec 26  0:00)
A10zoXd = A10zk89 = A10xFqD = A10zDsS
1 89952U 00000ABV 21360.49919926  .00000000  00000-0  00000-0 0 13225
2 89952 015.1173 015.9717 2942385 256.6908 047.6584 01.01261484    03

# Worst residual: 135.52 km
# MJD 59575.000000 (2021 Dec 27  0:00)
A10zoXd = A10zk89 = A10xFqD = A10zDsS
1 89952U 00000ABV 21361.49919926  .00000000  00000-0  00000-0 0 13226
2 89952 015.1285 016.0403 2938887 258.2489 049.5408 01.01247971    06

# Worst residual: 126.71 km
# MJD 59576.000000 (2021 Dec 28  0:00)
A10zoXd = A10zk89 = A10xFqD = A10zDsS
1 89952U 00000ABV 21362.49919926  .00000000  00000-0  00000-0 0 13227
2 89952 015.1313 016.1033 2938318 259.7953 051.4408 01.01238049    07

# Worst residual: 135.56 km
# MJD 59577.000000 (2021 Dec 29  0:00)
A10zoXd = A10zk89 = A10xFqD = A10zDsS
1 89952U 00000ABV 21363.49919926  .00000000  00000-0  00000-0 0 13228
2 89952 015.1382 016.1964 2936354 261.3334 053.3311 01.01234149    07

# Worst residual: 138.98 km
# MJD 59578.000000 (2021 Dec 30  0:00)
A10zoXd = A10zk89 = A10xFqD = A10zDsS
1 89952U 00000ABV 21364.49919926  .00000000  00000-0  00000-0 0 13229
2 89952 015.1409 016.2824 2936437 262.8586 055.2342 01.01235837    00
